{{Infobox Planet  
| name = 506 Marion
| image = 
| caption = 
| discovery=yes | physical_characteristics = yes | bgcolour=#FFFFC0
| discovery_ref = 
| discoverer = [[雷蒙德·史密斯·杜根|雷蒙德·史密斯·杜根]]
| discovery_site = [[海德堡|海德堡]]
| discovered =  1903年2月17日
| mp_name = 506
| alt_names = 1903 LN
| named_after = Marion Orcutt
| mp_category=[[小行星带|主带小行星]]
| orbit_ref = <ref>[http://ssd.jpl.nasa.gov/sbdb.cgi?sstr=506 506 Marion (1903 LN)]</ref>
| epoch = 2011年8月27日
| semimajor= 3.038705148126873AU
| perihelion=2.589496716355463AU
| aphelion= 3.487913579898282[[天文单位|AU]]
| eccentricity =0.09503068366741065					
| period = 1934.778574024727[[日|地球日]]<br>5.30[[年|地球年]] 
| inclination=16.99705235155944[[角度|°]]
| asc_node=312.9894506398909°
| arg_peri=146.9097842288726°
| mean_anomaly=202.4792673847509°
| avg_speed=
 | dimensions=105.94千米
 | mass=
 | density=
 | surface_grav=
 | escape_velocity=
 | rotation=13.546小时
 | spectral_type=[[X-型小行星|XC]]
 | magnitude=
 | abs_magnitude=8.85
 | albedo=0.0454		
 | single_temperature=
}}
'''小行星506'''（'''506 Marion'''），是由[[美国|美国]][[天文学家|天文学家]][[雷蒙德·史密斯·杜根|雷蒙德·史密斯·杜根]]于1903年2月17日在[[德国|德国]][[海德堡|海德堡]][[王座山天文台|王座山天文台]]发现的[[小行星带|主带]][[小行星|小行星]]。

小行星506以杜根的表妹Marion Orcutt命名。

== 参考资料 ==
{{Reflist}}

{{Minor Planet Number|(505)[[小行星505|小行星505]]|(507)[[小行星507|小行星507]]}}

[[Category:小行星带天体|Category:小行星带天体]]
[[Category:1903年发现的小行星|Category:1903年发现的小行星]]
[[Category:以人名命名的小行星|Category:以人名命名的小行星]]